KAITUO 1B               
1 40912U 15049P   18021.48682591  .00001145  00000-0  58846-4 0  9996
2 40912  97.4501  30.9245 0015919 155.7350 357.3313 15.18387290129403
TIANWANG 1C (TW-1C)     
1 40926U 15051B   18022.56500954  .00006678  00000-0  13501-3 0  9990
2 40926  97.2028  65.6719 0012680  89.4926  67.3110 15.46717372130780
TIANWANG 1B (TW-1B)     
1 40927U 15051C   18022.52832709  .00006359  00000-0  13392-3 0  9997
2 40927  97.2117  65.5460 0012418  99.9709   6.0935 15.45542451130706
TIANWANG 1A (TW-1A)     
1 40928U 15051D   18021.39387109  .00002527  00000-0  69977-4 0  9995
2 40928  97.2028  58.2202 0013630 126.3022 358.6276 15.37818227130219
LAPAN-A2 (IO-86)        
1 40931U 15052B   18020.74286720  .00000698  00000-0  81002-5 0  9996
2 40931   6.0032 121.5318 0013573  80.7308 279.4333 14.76562284125178
LQSAT                   
1 40958U 15057A   18022.52654949  .00000001  00000-0  78690-5 0  9997
2 40958  97.9569  98.7631 0019706  84.0721 276.2738 14.73012427123408
CHUBUSAT-2              
1 41338U 16012B   18021.57777176  .00000339  00000-0  19848-4 0  9997
2 41338  31.0023 165.0716 0013787  60.9982 299.2033 14.99907266105801
CHUBUSAT-3              
1 41339U 16012C   18022.54165359  .00000253  00000-0  13013-4 0  9993
2 41339  31.0062 157.7557 0013391  77.7600 282.4539 15.00099233105938
OUFTI-1                 
1 41458U 16025C   18022.51057489  .00000513  00000-0  31802-4 0  9995
2 41458  98.1552  77.4694 0169910 276.0758  82.1143 15.04164151 95531
E-ST@R-II               
1 41459U 16025D   18021.56180783  .00001757  00000-0  96919-4 0  9995
2 41459  98.1558  76.3593 0171218 279.6916  78.5007 15.03937532 95384
AAUSAT 4                
1 41460U 16025E   18022.40218494  .00001903  00000-0  10417-3 0  9993
2 41460  98.1517  77.5446 0162029 273.8346  84.4369 15.05193946 95555
NUSAT 1 (LO-87)         
1 41557U 16033B   18022.27407056  .00001387  00000-0  53563-4 0  9994
2 41557  97.4471 106.7202 0012750 318.5960  41.4312 15.27931307 91879
BEESAT-4                
1 41619U 16040W   18022.23670537  .00001470  00000-0  67988-4 0  9992
2 41619  97.4353  87.2911 0012405  29.5044 330.6889 15.21680842 75891
PRATHAM                 
1 41783U 16059A   18021.76632400  .00000066  00000-0  22258-4 0  9999
2 41783  98.1390  85.5402 0033421 193.1634 166.8699 14.62895711 70555
ALSAT 1N                
1 41789U 16059G   18022.39324008  .00000078  00000-0  23950-4 0  9990
2 41789  98.1396  87.0896 0028246 183.1593 176.9435 14.64120920 70682
NAYIF-1 (EO-88)         
1 42017U 17008BX  18021.43360187  .00001507  00000-0  65253-4 0  9992
2 42017  97.4682  87.2589 0006921 162.8470 197.3002 15.23963033 51718
LILACSAT-1              
1 42725U 98067ME  18022.42707588  .00020858  00000-0  23015-3 0  9991
2 42725  51.6385  17.8290 0006026  48.8527 311.2986 15.63027244 37672
MAX VALIER SAT          
1 42778U 17036P   18022.14447833  .00000994  00000-0  47890-4 0  9996
2 42778  97.4243  84.1496 0011896 215.1825 144.8626 15.20989606 32305
FOX-1B (AO-91)          
1 43017U 17073E   18021.30063057  .00001108  00000-0  92121-4 0  9998
2 43017  97.6979 318.6612 0261319  30.0203 331.5701 14.77851899  9414
FOX-1D (AO-92)          
1 43137U 18004AC  18021.60455066  .00001067  00000-0  49347-4 0  9990
2 43137  97.5547  83.7717 0008120 249.8906 110.1457 15.22376815  1414
